O3B MPOWER F1           
1 54755U 22174A   23325.46427100 -.00000015  00000+0  00000+0 0  9996
2 54755   0.0540  18.5302 0005626 236.6395 119.0516  5.00118318 18389
